{
  "type": "FeatureCollection",
  "features": [
    {
      "type": "Feature",
      "properties": {
        "norad_id": 31094,
        "name": "FENGYUN 1C DEB",
        "group": "fengyun-1c-debris",
        "lat": 57.18915409875895,
        "lon": -150.4533195648794,
        "alt_km": 818.8167611851568,
        "timestamp": "2025-12-21T22:41:41.740505+00:00",
        "meta_object_name": "FENGYUN 1C DEB",
        "meta_object_id": "1999-025BGQ",
        "meta_epoch": "2025-12-20T10:27:27.000288",
        "meta_mean_motion": 14.02078179,
        "meta_eccentricity": 0.01065019,
        "meta_inclination": 98.8564,
        "meta_ra_of_asc_node": 222.0744,
        "meta_arg_of_pericenter": 25.7064,
        "meta_mean_anomaly": 334.9342,
        "meta_ephemeris_type": 0,
        "meta_classification_type": "U",
        "meta_norad_cat_id": 31094,
        "meta_element_set_no": 999,
        "meta_rev_at_epoch": 95727,
        "meta_bstar": 0.0012628369,
        "meta_mean_motion_dot": 1.984e-05,
        "meta_mean_motion_ddot": 0,
        "tle_line1": "1 31094U 99025BGQ 25354.43572917  .00001984  00000+0  12628-2 0  9991",
        "tle_line2": "2 31094  98.8564 222.0744 0106501  25.7064 334.9342 14.02078179957274"
      },
      "geometry": {
        "type": "Point",
        "coordinates": [
          -150.4533195648794,
          57.18915409875895
        ]
      }
    },
    {
      "type": "Feature",
      "properties": {
        "norad_id": 31095,
        "name": "FENGYUN 1C DEB",
        "group": "fengyun-1c-debris",
        "lat": -56.12615490797053,
        "lon": -56.40489421146088,
        "alt_km": 1079.5369686227878,
        "timestamp": "2025-12-21T22:41:41.740516+00:00",
        "meta_object_name": "FENGYUN 1C DEB",
        "meta_object_id": "1999-025BGR",
        "meta_epoch": "2025-12-21T04:58:39.334080",
        "meta_mean_motion": 13.06671319,
        "meta_eccentricity": 0.0500106,
        "meta_inclination": 98.5626,
        "meta_ra_of_asc_node": 135.9725,
        "meta_arg_of_pericenter": 171.6101,
        "meta_mean_anomaly": 189.3778,
        "meta_ephemeris_type": 0,
        "meta_classification_type": "U",
        "meta_norad_cat_id": 31095,
        "meta_element_set_no": 999,
        "meta_rev_at_epoch": 89558,
        "meta_bstar": -0.00021833,
        "meta_mean_motion_dot": -1.63e-06,
        "meta_mean_motion_ddot": 0,
        "tle_line1": "1 31095U 99025BGR 25355.20739970 -.00000163  00000+0 -21833-3 0  9991",
        "tle_line2": "2 31095  98.5626 135.9725 0500106 171.6101 189.3778 13.06671319895582"
      },
      "geometry": {
        "type": "Point",
        "coordinates": [
          -56.40489421146088,
          -56.12615490797053
        ]
      }
    },
    {
      "type": "Feature",
      "properties": {
        "norad_id": 31097,
        "name": "FENGYUN 1C DEB",
        "group": "fengyun-1c-debris",
        "lat": 30.126440819568305,
        "lon": -55.65805556334394,
        "alt_km": 734.2413806401446,
        "timestamp": "2025-12-21T22:41:41.740526+00:00",
        "meta_object_name": "FENGYUN 1C DEB",
        "meta_object_id": "1999-025BGT",
        "meta_epoch": "2025-12-21T14:20:04.475328",
        "meta_mean_motion": 14.47140093,
        "meta_eccentricity": 0.00157038,
        "meta_inclination": 98.8604,
        "meta_ra_of_asc_node": 118.784,
        "meta_arg_of_pericenter": 244.824,
        "meta_mean_anomaly": 250.9795,
        "meta_ephemeris_type": 0,
        "meta_classification_type": "U",
        "meta_norad_cat_id": 31097,
        "meta_element_set_no": 999,
        "meta_rev_at_epoch": 97166,
        "meta_bstar": 0.0021458126,
        "meta_mean_motion_dot": 7.799e-05,
        "meta_mean_motion_ddot": 0,
        "tle_line1": "1 31097U 99025BGT 25355.59727402  .00007799  00000+0  21458-2 0  9994",
        "tle_line2": "2 31097  98.8604 118.7840 0015703 244.8240 250.9795 14.47140093971665"
      },
      "geometry": {
        "type": "Point",
        "coordinates": [
          -55.65805556334394,
          30.126440819568305
        ]
      }
    },
    {
      "type": "Feature",
      "properties": {
        "norad_id": 31098,
        "name": "FENGYUN 1C DEB",
        "group": "fengyun-1c-debris",
        "lat": 11.760032128874988,
        "lon": -63.73249394041828,
        "alt_km": 715.3006743451233,
        "timestamp": "2025-12-21T22:41:41.740536+00:00",
        "meta_object_name": "FENGYUN 1C DEB",
        "meta_object_id": "1999-025BGU",
        "meta_epoch": "2025-12-21T07:02:05.085024",
        "meta_mean_motion": 14.51703488,
        "meta_eccentricity": 0.0015376,
        "meta_inclination": 98.8704,
        "meta_ra_of_asc_node": 113.716,
        "meta_arg_of_pericenter": 226.3657,
        "meta_mean_anomaly": 133.6262,
        "meta_ephemeris_type": 0,
        "meta_classification_type": "U",
        "meta_norad_cat_id": 31098,
        "meta_element_set_no": 999,
        "meta_rev_at_epoch": 97081,
        "meta_bstar": 0.0022928,
        "meta_mean_motion_dot": 9.18e-05,
        "meta_mean_motion_ddot": 0,
        "tle_line1": "1 31098U 99025BGU 25355.29311441  .00009180  00000+0  22928-2 0  9993",
        "tle_line2": "2 31098  98.8704 113.7160 0015376 226.3657 133.6262 14.51703488970810"
      },
      "geometry": {
        "type": "Point",
        "coordinates": [
          -63.73249394041828,
          11.760032128874988
        ]
      }
    },
    {
      "type": "Feature",
      "properties": {
        "norad_id": 31099,
        "name": "FENGYUN 1C DEB",
        "group": "fengyun-1c-debris",
        "lat": -67.60438011892184,
        "lon": -88.90952308906888,
        "alt_km": 769.5428149056561,
        "timestamp": "2025-12-21T22:41:41.740546+00:00",
        "meta_object_name": "FENGYUN 1C DEB",
        "meta_object_id": "1999-025BGV",
        "meta_epoch": "2025-12-19T04:28:21.757152",
        "meta_mean_motion": 14.27931138,
        "meta_eccentricity": 0.00625457,
        "meta_inclination": 98.9378,
        "meta_ra_of_asc_node": 245.8168,
        "meta_arg_of_pericenter": 262.4442,
        "meta_mean_anomaly": 251.6638,
        "meta_ephemeris_type": 0,
        "meta_classification_type": "U",
        "meta_norad_cat_id": 31099,
        "meta_element_set_no": 999,
        "meta_rev_at_epoch": 97563,
        "meta_bstar": 0.00022712412,
        "meta_mean_motion_dot": 5.27e-06,
        "meta_mean_motion_ddot": 0,
        "tle_line1": "1 31099U 99025BGV 25353.18636293  .00000527  00000+0  22712-3 0  9993",
        "tle_line2": "2 31099  98.9378 245.8168 0062545 262.4442 251.6638 14.27931138975638"
      },
      "geometry": {
        "type": "Point",
        "coordinates": [
          -88.90952308906888,
          -67.60438011892184
        ]
      }
    },
    {
      "type": "Feature",
      "properties": {
        "norad_id": 31146,
        "name": "FENGYUN 1C DEB",
        "group": "fengyun-1c-debris",
        "lat": 36.45896903106642,
        "lon": 113.79427564653913,
        "alt_km": 643.999937794787,
        "timestamp": "2025-12-21T22:41:41.740556+00:00",
        "meta_object_name": "FENGYUN 1C DEB",
        "meta_object_id": "1999-025BGY",
        "meta_epoch": "2025-12-21T01:51:06.730272",
        "meta_mean_motion": 14.27719867,
        "meta_eccentricity": 0.02129686,
        "meta_inclination": 99.0425,
        "meta_ra_of_asc_node": 286.1381,
        "meta_arg_of_pericenter": 142.9048,
        "meta_mean_anomaly": 218.7069,
        "meta_ephemeris_type": 0,
        "meta_classification_type": "U",
        "meta_norad_cat_id": 31146,
        "meta_element_set_no": 999,
        "meta_rev_at_epoch": 96884,
        "meta_bstar": 0.00022256019,
        "meta_mean_motion_dot": 6.48e-06,
        "meta_mean_motion_ddot": 0,
        "tle_line1": "1 31146U 99025BGY 25355.07716123  .00000648  00000+0  22256-3 0  9994",
        "tle_line2": "2 31146  99.0425 286.1381 0212968 142.9048 218.7069 14.27719867968841"
      },
      "geometry": {
        "type": "Point",
        "coordinates": [
          113.79427564653913,
          36.45896903106642
        ]
      }
    },
    {
      "type": "Feature",
      "properties": {
        "norad_id": 31148,
        "name": "FENGYUN 1C DEB",
        "group": "fengyun-1c-debris",
        "lat": 66.79695315138922,
        "lon": 83.24459735727822,
        "alt_km": 736.085532762163,
        "timestamp": "2025-12-21T22:41:41.740566+00:00",
        "meta_object_name": "FENGYUN 1C DEB",
        "meta_object_id": "1999-025BHA",
        "meta_epoch": "2025-12-19T10:17:53.585088",
        "meta_mean_motion": 14.43396116,
        "meta_eccentricity": 0.0136538,
        "meta_inclination": 98.8661,
        "meta_ra_of_asc_node": 239.2709,
        "meta_arg_of_pericenter": 30.9307,
        "meta_mean_anomaly": 329.9834,
        "meta_ephemeris_type": 0,
        "meta_classification_type": "U",
        "meta_norad_cat_id": 31148,
        "meta_element_set_no": 999,
        "meta_rev_at_epoch": 97627,
        "meta_bstar": 0.00061013,
        "meta_mean_motion_dot": 2.253e-05,
        "meta_mean_motion_ddot": 0,
        "tle_line1": "1 31148U 99025BHA 25353.42909242  .00002253  00000+0  61013-3 0  9997",
        "tle_line2": "2 31148  98.8661 239.2709 0136538  30.9307 329.9834 14.43396116976274"
      },
      "geometry": {
        "type": "Point",
        "coordinates": [
          83.24459735727822,
          66.79695315138922
        ]
      }
    }
  ]
}